NAVSTAR 48 (USA 151)    
1 26407U 00040A   26197.70188023  .00000040  00000+0  00000+0 0  9999
2 26407  54.8483 213.9898 0120480 302.7594  51.6165  2.00557873190537
NAVSTAR 51 (USA 166)    
1 27663U 03005A   26197.03840266  .00000044  00000+0  00000+0 0  9992
2 27663  54.8788 213.8224 0148292  53.1718 318.3547  2.00558980171893
NAVSTAR 54 (USA 177)    
1 28190U 04009A   26196.32288520 -.00000017  00000+0  00000+0 0  9994
2 28190  54.8064 274.5493 0117190 174.3464 193.0921  2.00553679163519
NAVSTAR 56 (USA 180)    
1 28474U 04045A   26196.65175715 -.00000092  00000+0  00000+0 0  9999
2 28474  55.1179 323.7499 0170187 317.0701 352.9112  2.00557062158997
NAVSTAR 57 (USA 183)    
1 28874U 05038A   26197.27840235 -.00000022  00000+0  00000+0 0  9994
2 28874  54.8546 272.0021 0128230 296.4273  70.6506  2.00563624152422
INMARSAT 4-F2           
1 28899U 05044A   26197.79735902 -.00000273  00000+0  00000+0 0  9997
2 28899   5.1335  43.6660 0002768  63.5999 257.8943  1.00270515 75814
NAVSTAR 58 (USA 190)    
1 29486U 06042A   26197.60658375  .00000021  00000+0  00000+0 0  9997
2 29486  54.7129 150.1709 0107228  55.1966  87.8158  2.00568138144980
NAVSTAR 59 (USA 192)    
1 29601U 06052A   26197.33656494  .00000042  00000+0  00000+0 0  9990
2 29601  54.9321 212.8507 0084745  90.9961 270.0095  2.00559750143993
NAVSTAR 60 (USA 196)    
1 32260U 07047A   26197.64231737 -.00000036  00000+0  00000+0 0  9997
2 32260  54.1169  78.8515 0167837  88.0227 273.9620  2.00553854137400
COSMOS 2433 [GLONASS-M] 
1 32275U 07052A   26197.00960947 -.00000064  00000+0  00000+0 0  9992
2 32275  65.5591 314.9640 0003542 203.6409 156.3548  2.13104076145676
COSMOS 2432 [GLONASS-M] 
1 32276U 07052B   26197.54550389 -.00000065  00000+0  00000+0 0  9998
2 32276  65.5746 315.0744 0007406 321.6777  33.2128  2.13103049145708
NAVSTAR 61 (USA 199)    
1 32384U 07062A   26197.46263500 -.00000026  00000+0  00000+0 0  9993
2 32384  55.0085 272.9745 0036065 167.5913 190.6856  2.00561660136093
COSMOS 2434 [GLONASS-M] 
1 32393U 07065A   26196.39612509  .00000054  00000+0  00000+0 0  9994
2 32393  64.3200 190.9641 0001276 327.5918 171.4568  2.13101170144375
COSMOS 2436 [GLONASS-M] 
1 32395U 07065C   26196.18930753  .00000056  00000+0  00000+0 0  9999
2 32395  64.3286 191.0436 0017314 353.5207 119.0574  2.13099957144324
NAVSTAR 62 (USA 201)    
1 32711U 08012A   26197.55082668  .00000019  00000+0  00000+0 0  9998
2 32711  54.5002 148.7517 0211689 248.1647 109.5360  2.00573147134342
NAVSTAR 64 (USA 206)    
1 35752U 09043A   26197.55459325 -.00000081  00000+0  00000+0 0  9999
2 35752  56.2287  26.2994 0053711  84.4473 285.7660  2.00552658123950
COSMOS 2456 [GLONASS-M] 
1 36111U 09070A   26197.17812943 -.00000016  00000+0  00000+0 0  9994
2 36111  65.0282  69.9837 0003619 341.3386 195.9451  2.13103565129042
COSMOS 2457 [GLONASS-M] 
1 36112U 09070B   26194.19579927 -.00000012  00000+0  00000+0 0  9992
2 36112  65.0120  69.9289 0004075 121.6619  54.8410  2.13101172128982
COSMOS 2460 [GLONASS-M] 
1 36402U 10007C   26195.40307670 -.00000062  00000+0  00000+0 0  9990
2 36402  65.4032 313.5463 0001835 143.6915 240.9432  2.13101628127310
NAVSTAR 65 (USA 213)    
1 36585U 10022A   26196.37400053  .00000049  00000+0  00000+0 0  9999
2 36585  54.2685 207.4265 0126723  66.1541 291.5416  2.00563746118156
BEIDOU-2 IGSO-1         
1 36828U 10036A   26195.91730701 -.00000122  00000+0  00000+0 0  9992
2 36828  54.3063 162.7092 0059022 225.2803 342.1032  1.00264343 58378
BEIDOU-2 G4             
1 37210U 10057A   26197.80065236 -.00000125  00000+0  00000+0 0  9998
2 37210   3.7186  68.7578 0005609 185.7426 128.2821  1.00272565 57581
BEIDOU-2 IGSO-2         
1 37256U 10068A   26196.64956755 -.00000192  00000+0  00000+0 0  9990
2 37256  47.4956 271.4764 0056901 213.8035 150.3630  1.00272942 57089
BEIDOU-2 IGSO-3         
1 37384U 11013A   26197.50462090 -.00000169  00000+0  00000+0 0  9997
2 37384  62.4487  39.8739 0035582 183.5035 359.0316  1.00260363 55957
GSAT-8                  
1 37605U 11022A   26197.85109167  .00000073  00000+0  00000+0 0  9997
2 37605   2.2059  81.4603 0002587 160.4460  54.2533  1.00272175 53517
BEIDOU-2 IGSO-4         
1 37763U 11038A   26193.91136250 -.00000017  00000+0  00000+0 0  9994
2 37763  54.6038 165.4445 0160342 231.4539 316.2369  1.00279714 54905
GSAT0101 (GALILEO-PFM)  
1 37846U 11060A   26196.59103932 -.00000101  00000+0  00000+0 0  9993
2 37846  56.9841 340.9916 0002223  61.9424 298.0655  1.70475567 91603
GSAT0102 (GALILEO-FM2)  
1 37847U 11060B   26196.51364557 -.00000101  00000+0  00000+0 0  9998
2 37847  56.9849 340.9943 0002108   7.4765 350.6813  1.70475846 91608
COSMOS 2476 [GLONASS-M] 
1 37867U 11064A   26197.30322616 -.00000015  00000+0  00000+0 0  9996
2 37867  65.2862  71.8890 0022139 235.9311 305.6457  2.13103673114389
COSMOS 2477 [GLONASS-M] 
1 37868U 11064B   26196.15395625 -.00000010  00000+0  00000+0 0  9994
2 37868  65.2921  72.0075 0019117 236.8947 323.2552  2.13102912114355
COSMOS 2475 [GLONASS-M] 
1 37869U 11064C   26197.59717102 -.00000017  00000+0  00000+0 0  9999
2 37869  65.2997  71.9806 0024799 251.1530 291.1802  2.13101724114394
